{
  "type": "FeatureCollection",
  "features": [
    {
      "type": "Feature",
      "properties": {
        "norad_id": 44334,
        "name": "EUTELSAT 7C",
        "group": "eutelsat",
        "lat": 0.053702285379245436,
        "lon": -85.9886265459309,
        "alt_km": 35772.062291231174,
        "timestamp": "2025-12-27T11:23:19.549275+00:00",
        "meta_object_name": "EUTELSAT 7C",
        "meta_object_id": "2019-034B",
        "meta_epoch": "2025-12-27T02:45:44.542368",
        "meta_mean_motion": 1.0027256,
        "meta_eccentricity": 0.00033,
        "meta_inclination": 0.0729,
        "meta_ra_of_asc_node": 180.7939,
        "meta_arg_of_pericenter": 83.5371,
        "meta_mean_anomaly": 239.9301,
        "meta_ephemeris_type": 0,
        "meta_classification_type": "U",
        "meta_norad_cat_id": 44334,
        "meta_element_set_no": 999,
        "meta_rev_at_epoch": 511,
        "meta_bstar": 0,
        "meta_mean_motion_dot": 7.1e-07,
        "meta_mean_motion_ddot": 0,
        "tle_line1": "1 44334U 19034B   25361.11509887  .00000071  00000+0  00000+0 0  9997",
        "tle_line2": "2 44334   0.0729 180.7939 0003300  83.5371 239.9301  1.00272560  5115"
      },
      "geometry": {
        "type": "Point",
        "coordinates": [
          -85.9886265459309,
          0.053702285379245436
        ]
      }
    },
    {
      "type": "Feature",
      "properties": {
        "norad_id": 44624,
        "name": "EUTELSAT 5 WEST B",
        "group": "eutelsat",
        "lat": -0.07949033648444853,
        "lon": -97.98070039689253,
        "alt_km": 35772.74315120715,
        "timestamp": "2025-12-27T11:23:19.549291+00:00",
        "meta_object_name": "EUTELSAT 5 WEST B",
        "meta_object_id": "2019-067A",
        "meta_epoch": "2025-12-27T02:42:22.362912",
        "meta_mean_motion": 1.00271218,
        "meta_eccentricity": 0.0003267,
        "meta_inclination": 0.0618,
        "meta_ra_of_asc_node": 348.3802,
        "meta_arg_of_pericenter": 286.1386,
        "meta_mean_anomaly": 216.922,
        "meta_ephemeris_type": 0,
        "meta_classification_type": "U",
        "meta_norad_cat_id": 44624,
        "meta_element_set_no": 999,
        "meta_rev_at_epoch": 2271,
        "meta_bstar": 0,
        "meta_mean_motion_dot": -2e-07,
        "meta_mean_motion_ddot": 0,
        "tle_line1": "1 44624U 19067A   25361.11275883 -.00000020  00000+0  00000+0 0  9996",
        "tle_line2": "2 44624   0.0618 348.3802 0003267 286.1386 216.9220  1.00271218 22713"
      },
      "geometry": {
        "type": "Point",
        "coordinates": [
          -97.98070039689253,
          -0.07949033648444853
        ]
      }
    },
    {
      "type": "Feature",
      "properties": {
        "norad_id": 45027,
        "name": "EUTELSAT KONNECT",
        "group": "eutelsat",
        "lat": -0.01811304994751981,
        "lon": -85.77402106048302,
        "alt_km": 35780.30824874541,
        "timestamp": "2025-12-27T11:23:19.549304+00:00",
        "meta_object_name": "EUTELSAT KONNECT",
        "meta_object_id": "2020-005B",
        "meta_epoch": "2025-12-27T02:45:52.028928",
        "meta_mean_motion": 1.00270379,
        "meta_eccentricity": 0.0001516,
        "meta_inclination": 0.0656,
        "meta_ra_of_asc_node": 94.0396,
        "meta_arg_of_pericenter": 196.9123,
        "meta_mean_anomaly": 213.5692,
        "meta_ephemeris_type": 0,
        "meta_classification_type": "U",
        "meta_norad_cat_id": 45027,
        "meta_element_set_no": 999,
        "meta_rev_at_epoch": 2261,
        "meta_bstar": 0,
        "meta_mean_motion_dot": 7.2e-07,
        "meta_mean_motion_ddot": 0,
        "tle_line1": "1 45027U 20005B   25361.11518552  .00000072  00000+0  00000+0 0  9997",
        "tle_line2": "2 45027   0.0656  94.0396 0001516 196.9123 213.5692  1.00270379 22610"
      },
      "geometry": {
        "type": "Point",
        "coordinates": [
          -85.77402106048302,
          -0.01811304994751981
        ]
      }
    },
    {
      "type": "Feature",
      "properties": {
        "norad_id": 49056,
        "name": "EUTELSAT QUANTUM",
        "group": "eutelsat",
        "lat": -0.03019799846558194,
        "lon": -45.250451181554276,
        "alt_km": 35772.81397042539,
        "timestamp": "2025-12-27T11:23:19.549315+00:00",
        "meta_object_name": "EUTELSAT QUANTUM",
        "meta_object_id": "2021-069B",
        "meta_epoch": "2025-12-27T01:14:43.109376",
        "meta_mean_motion": 1.00271592,
        "meta_eccentricity": 0.0003652,
        "meta_inclination": 0.0149,
        "meta_ra_of_asc_node": 31.5305,
        "meta_arg_of_pericenter": 252.4924,
        "meta_mean_anomaly": 238.1442,
        "meta_ephemeris_type": 0,
        "meta_classification_type": "U",
        "meta_norad_cat_id": 49056,
        "meta_element_set_no": 999,
        "meta_rev_at_epoch": 1620,
        "meta_bstar": 0,
        "meta_mean_motion_dot": 1.48e-06,
        "meta_mean_motion_ddot": 0,
        "tle_line1": "1 49056U 21069B   25361.05188784  .00000148  00000+0  00000+0 0  9991",
        "tle_line2": "2 49056   0.0149  31.5305 0003652 252.4924 238.1442  1.00271592 16201"
      },
      "geometry": {
        "type": "Point",
        "coordinates": [
          -45.250451181554276,
          -0.03019799846558194
        ]
      }
    },
    {
      "type": "Feature",
      "properties": {
        "norad_id": 53765,
        "name": "EUTELSAT KONNECT VHTS",
        "group": "eutelsat",
        "lat": -0.009199094898145936,
        "lon": -90.2593797353475,
        "alt_km": 35775.8615435389,
        "timestamp": "2025-12-27T11:23:19.549326+00:00",
        "meta_object_name": "EUTELSAT KONNECT VHTS",
        "meta_object_id": "2022-110A",
        "meta_epoch": "2025-12-26T23:19:08.450112",
        "meta_mean_motion": 1.00268307,
        "meta_eccentricity": 0.0002789,
        "meta_inclination": 0.0593,
        "meta_ra_of_asc_node": 98.4997,
        "meta_arg_of_pericenter": 152.36,
        "meta_mean_anomaly": 197.3421,
        "meta_ephemeris_type": 0,
        "meta_classification_type": "U",
        "meta_norad_cat_id": 53765,
        "meta_element_set_no": 999,
        "meta_rev_at_epoch": 510,
        "meta_bstar": 0,
        "meta_mean_motion_dot": 3.9e-07,
        "meta_mean_motion_ddot": 0,
        "tle_line1": "1 53765U 22110A   25360.97162558  .00000039  00000+0  00000+0 0  9991",
        "tle_line2": "2 53765   0.0593  98.4997 0002789 152.3600 197.3421  1.00268307  5104"
      },
      "geometry": {
        "type": "Point",
        "coordinates": [
          -90.2593797353475,
          -0.009199094898145936
        ]
      }
    },
    {
      "type": "Feature",
      "properties": {
        "norad_id": 54048,
        "name": "EUTELSAT HOTBIRD 13F",
        "group": "eutelsat",
        "lat": -0.025938036062726058,
        "lon": -80.01484293207703,
        "alt_km": 35783.96745468581,
        "timestamp": "2025-12-27T11:23:19.549338+00:00",
        "meta_object_name": "EUTELSAT HOTBIRD 13F",
        "meta_object_id": "2022-134A",
        "meta_epoch": "2025-12-26T22:46:38.586144",
        "meta_mean_motion": 1.00271009,
        "meta_eccentricity": 0.0002368,
        "meta_inclination": 0.0512,
        "meta_ra_of_asc_node": 291.2358,
        "meta_arg_of_pericenter": 65.5103,
        "meta_mean_anomaly": 93.5854,
        "meta_ephemeris_type": 0,
        "meta_classification_type": "U",
        "meta_norad_cat_id": 54048,
        "meta_element_set_no": 999,
        "meta_rev_at_epoch": 1165,
        "meta_bstar": 0,
        "meta_mean_motion_dot": 1.09e-06,
        "meta_mean_motion_ddot": 0,
        "tle_line1": "1 54048U 22134A   25360.94905771  .00000109  00000+0  00000+0 0  9999",
        "tle_line2": "2 54048   0.0512 291.2358 0002368  65.5103  93.5854  1.00271009 11657"
      },
      "geometry": {
        "type": "Point",
        "coordinates": [
          -80.01484293207703,
          -0.025938036062726058
        ]
      }
    },
    {
      "type": "Feature",
      "properties": {
        "norad_id": 54225,
        "name": "EUTELSAT HOTBIRD 13G",
        "group": "eutelsat",
        "lat": 0.01589551945660086,
        "lon": -80.01164449421518,
        "alt_km": 35786.72935661232,
        "timestamp": "2025-12-27T11:23:19.549350+00:00",
        "meta_object_name": "EUTELSAT HOTBIRD 13G",
        "meta_object_id": "2022-146A",
        "meta_epoch": "2025-12-26T22:46:38.586144",
        "meta_mean_motion": 1.00258057,
        "meta_eccentricity": 0.0002214,
        "meta_inclination": 0.0501,
        "meta_ra_of_asc_node": 221.1292,
        "meta_arg_of_pericenter": 348.4297,
        "meta_mean_anomaly": 240.7501,
        "meta_ephemeris_type": 0,
        "meta_classification_type": "U",
        "meta_norad_cat_id": 54225,
        "meta_element_set_no": 999,
        "meta_rev_at_epoch": 573,
        "meta_bstar": 0,
        "meta_mean_motion_dot": 1.07e-06,
        "meta_mean_motion_ddot": 0,
        "tle_line1": "1 54225U 22146A   25360.94905771  .00000107  00000+0  00000+0 0  9997",
        "tle_line2": "2 54225   0.0501 221.1292 0002214 348.4297 240.7501  1.00258057  5733"
      },
      "geometry": {
        "type": "Point",
        "coordinates": [
          -80.01164449421518,
          0.01589551945660086
        ]
      }
    }
  ]
}